#dP2024 12 25 12  0  0.00000000      96 __u+U IGS20 EXT  IAC
## 2346 302400.00000000   900.00000000 60669 0.5000000000000
+   51   G02G03G04G05G06G07G08G10G11G12G13G14G15G16G17G18G19
+        G20G21G22G23G24G25G26G27G28G29G30G31G32R01R02R03R04
+        R05R07R08R09R11R12R14R15R16R17R18R19R20R21R22R24R26
+          0  0  0  0  0  0  0  0  0  0  0  0  0  0  0  0  0
+          0  0  0  0  0  0  0  0  0  0  0  0  0  0  0  0  0
++         7  7  8  7  6  7  8  7  7  7  7  7  7  7  9  8  7
++         7  7  7  7  8  8  7 12  7  8  7  7  7  8  8  7  8
++         7  9  9  8  7  6  7  8  7  9  8  8  9  9  9  7  7
++         0  0  0  0  0  0  0  0  0  0  0  0  0  0  0  0  0
++         0  0  0  0  0  0  0  0  0  0  0  0  0  0  0  0  0
%c M  cc GPS ccc cccc cccc cccc cccc ccccc ccccc ccccc ccccc
%c cc cc ccc ccc cccc cccc cccc cccc ccccc ccccc ccccc ccccc
%f  0.0000000  0.000000000  0.00000000000  0.000000000000000
%f  0.0000000  0.000000000  0.00000000000  0.000000000000000
%i    0    0    0    0      0      0      0      0         0
%i    0    0    0    0      0      0      0      0         0
/* IAC                                ULTRA-RAPID PREDICTION
/* S/V CLOCKS ARE ALIGNED TO GNSS TIME                      
/* G:C1WC2W R:C1PC2P E:C1XC5X C:C2IC6I J:C1CC2S             
/* PCV:IGS20_2317 OL/AL:FES2004  NONE     YN ORB:CoN CLK:CoN
*  2024 12 26 11 30  0.00000000
PG02 -14712.910697   4366.403744  22130.926812   -283.010736
PG03 -22889.254169  11926.699686   5843.945858    633.088598
PG04 -20831.287056   2553.941744 -16352.322977    502.017003
PG05  19535.147056      3.064373 -18200.437316   -197.151908
PG06   5701.432678  25383.468724  -4948.958300    -72.730147
PG07  -7755.180795  20578.130970 -14031.670965    -14.502768
PG08 -25513.899306  -5138.286619   6268.153848    447.251155
PG10   2037.174624 -17708.051453  19805.465046   -250.144139
PG11  12107.350509  17619.522763 -15757.867371   -752.690653
PG12  23708.244590  -8169.197981   8396.605185   -560.695449
PG13  22705.408194  14031.453277      2.896043    691.325597
PG14  -5928.392404  19360.243040  17113.151321    567.764074
PG15  25712.071818   1942.569478   6150.084718    244.143397
PG16 -16518.256447  -6481.505740 -20252.037537    -93.658282
PG17   2767.846641  17210.658888  20391.156132    502.664038
PG18   6539.219502 -22269.182539 -12672.932857   -659.668337
PG19  13440.931282  18502.182206  13727.829031    578.512826
PG20  11356.135146  10201.973006 -21647.574186    367.580428
PG21 -16073.050658  -3854.372360  21362.450156     98.438778
PG22   1273.860023  16575.437548  21163.151818    -88.725362
PG23  14927.519724 -19681.022897   9484.961117    391.248956
PG24  15475.078892  -2075.159131  21030.375436   -470.166917
PG25  19294.326404 -17808.714397  -3242.011676    497.636504
PG26  -7703.369819 -14272.454583 -21177.280810    -23.314744
PG27 -23011.453904 -13098.936920  -4426.128156    -33.810746
PG28  -5719.375972 -25786.662074  -2799.694532   -518.742790
PG29  13949.813014  -8859.590191 -20864.117023   -552.681414
PG30    156.743348  26104.835669  -3886.218249   -253.065798
PG31 -10690.846290 -20887.408333 -12330.962368   -219.222519
PG32  -8292.392597 -17471.270411  18523.526615   -552.733545
PR01 -13887.979197   8839.773524 -19480.117058    109.073390
PR02   4291.118152  10799.441916 -22652.567358    -38.890905
PR03  20840.346566   7123.702418 -12762.837942    113.922654
PR04  25232.417666     -8.936098   3693.970296    270.051525
PR05  16303.859235  -7255.953583  18223.934997    142.792570
PR07 -21108.580838  -7065.624727  12550.733279     97.660864
PR08 -25234.610643    327.736649  -3802.032874     -6.172234
PR09   4214.076038 -20724.112547 -14310.119567    228.417301
PR11 -15191.251532   6703.583685 -19351.674480      3.093171
PR12 -14835.939772  20580.964891  -2699.322787     48.870799
PR14   7657.945960   8603.494913  22762.677819     27.478922
PR15  15804.551918  -8241.082518  18261.485915     72.811835
PR16  14832.757510 -20571.442694   2901.857983     31.955622
PR17  14398.375820  18511.392748 -10068.745187    151.874457
PR18  13019.228443   4620.346179 -21408.753942    178.747286
PR19   6686.719359  -9860.951490 -22546.778530   -303.293261
PR20  -6149.279372 -23294.206765  -8426.979895   -123.715924
PR21 -13977.686661 -19316.979379   9035.035524   -162.782406
PR22 -12944.482795  -3485.453685  21735.207375    -52.121192
PR24   7377.339520  23105.387026   7947.991665    -85.607536
PR26 -25420.184665   -386.875591  -1951.888984   -132.411460
*  2024 12 26 11 45  0.00000000
PG02 -15282.927447   2004.935370  22117.512969   -283.002687
PG03 -22332.426287  11264.245699   8598.629350    633.095744
PG04 -22370.350480   1703.566625 -14318.377457    502.022463
PG05  17998.852504   1479.970576 -19673.110385   -197.152913
PG06   5573.846148  25813.205325  -2067.488242    -72.755331
PG07  -8261.898508  18806.320056 -16051.623245    -14.501980
PG08 -25968.936282  -5558.535803   3533.094004    447.258871
PG10   3784.765732 -18949.280152  18296.884882   -250.158339
PG11  12100.818930  19314.361840 -13645.538698   -752.690493
PG12  22897.032953  -7325.815769  10953.949453   -560.697506
PG13  22486.827012  14138.269200  -2856.711983    691.326757
PG14  -7535.374539  20313.877630  15249.108115    567.770779
PG15  26236.435459   2374.655549   3420.336748    244.147492
PG16 -14640.411827  -7791.898173 -21189.326077    -93.649714
PG17    644.191504  16307.240659  21326.979814    502.649139
PG18   6923.182678 -20716.078819 -14919.666537   -659.667641
PG19  11864.881857  17856.171281  15814.479859    578.517033
PG20   9706.810388  12065.013962 -21503.845949    367.580148
PG21 -16592.797308  -6090.833962  20506.761593     98.440945
PG22   -672.165836  17769.549045  20209.215132    -88.727445
PG23  15765.903781 -20126.255252   6778.816546    391.255804
PG24  16062.283281    349.525582  20730.303186   -470.163826
PG25  19622.556441 -17681.270787   -404.026139    497.636068
PG26  -5921.601543 -15836.212028 -20591.183868    -23.327839
PG27 -22356.487203 -13076.104240  -7152.315437    -33.810360
PG28  -5496.056978 -25984.773955     50.963063   -518.752076
PG29  15995.228672  -7776.468352 -19809.709773   -552.678504
PG30   -272.878262  25537.348843  -6617.953467   -253.058394
PG31 -10591.797396 -22159.522226  -9873.284560   -219.221859
PG32  -6250.414089 -16797.213552  19895.975938   -552.727827
PR01 -16174.563861   8945.902791 -17573.697999    109.074539
PR02   1458.425953  10683.891191 -23068.317027    -38.890664
PR03  19099.497403   6955.521298 -15319.739527    113.923273
PR04  25492.411794   -183.211143    476.006374    270.052927
PR05  18422.716135  -7301.024405  16054.520658    142.793157
PR07 -19412.944381  -6885.355813  15126.933939     97.661495
PR08 -25517.763046    491.401601   -597.364254     -6.172272
PR09   4928.781063 -22161.278741 -11699.252877    228.419033
PR11 -13863.850023   4601.181568 -20901.188896      3.091550
PR12 -14451.751844  20194.310826  -5846.997326     48.871217
PR14   6274.041614  11001.482413  22143.485653     27.478833
PR15  14528.487908  -6255.711323  20024.730301     72.811470
PR16  14419.466595 -20175.397562   6052.794160     31.955931
PR17  15055.686408  19360.681840  -7071.325293    151.877424
PR18  14284.797349   6849.273320 -19952.840753    178.749011
PR19   7881.444982  -7301.477963 -23127.491779   -303.294547
PR20  -5797.442048 -22105.158331 -11359.463924   -123.715649
PR21 -14574.242594 -20049.945937   5972.723104   -162.785274
PR22 -14151.654929  -5783.967460  20454.065193    -52.110916
PR24   6945.006558  22022.511553  10878.433438    -85.608978
PR26 -25467.883916   -218.998456   1271.518065   -132.411183
EOF
